CTC1_L_00085001-01
1 10000U 26967NL  26075.70030093  .00000000  00000+0  00000-0 0  9992
2 10000  55.0000   0.0000 0000000   0.0000   0.0000 14.79785908    12
CTC1_L_00085001-02
1 10001U 23043ET  26075.70030093  .00000000  00000+0  00000-0 0  9995
2 10001  55.0000   0.0000 0000000   0.0000  90.0000 14.79785908    12
CTC1_L_00085001-03
1 10002U 23408BX  26075.70030093  .00000000  00000+0  00000-0 0  9991
2 10002  55.0000   0.0000 0000000   0.0000 180.0000 14.79785908    13
CTC1_L_00085001-04
1 10003U 23476RH  26075.70030093  .00000000  00000+0  00000-0 0  9997
2 10003  55.0000   0.0000 0000000   0.0000 270.0000 14.79785908    14
CTC1_L_00085002-01
1 10004U 23482WN  26075.70030093  .00000000  00000+0  00000-0 0  9995
2 10004  55.0000  12.0000 0000000   0.0000  12.0000 14.79785908    12
CTC1_L_00085002-02
1 10005U 23452BK  26075.70030093  .00000000  00000+0  00000-0 0  9993
2 10005  55.0000  12.0000 0000000   0.0000 102.0000 14.79785908    13
CTC1_L_00085002-03
1 10006U 24092HH  26075.70030093  .00000000  00000+0  00000-0 0  9995
2 10006  55.0000  12.0000 0000000   0.0000 192.0000 14.79785908    13
CTC1_L_00085002-04
1 10007U 24737OO  26075.70030093  .00000000  00000+0  00000-0 0  9992
2 10007  55.0000  12.0000 0000000   0.0000 282.0000 14.79785908    14
CTC1_L_00085003-01
1 10008U 23951AW  26075.70030093  .00000000  00000+0  00000-0 0  9990
2 10008  55.0000  24.0000 0000000   0.0000  24.0000 14.79785908    12
CTC1_L_00085003-02
1 10009U 26471BU  26075.70030093  .00000000  00000+0  00000-0 0  9991
2 10009  55.0000  24.0000 0000000   0.0000 114.0000 14.79785908    13
CTC1_L_00085003-03
1 10010U 22309WK  26075.70030093  .00000000  00000+0  00000-0 0  9999
2 10010  55.0000  24.0000 0000000   0.0000 204.0000 14.79785908    15
CTC1_L_00085003-04
1 10011U 23225T   26075.70030093  .00000000  00000+0  00000-0 0  9998
2 10011  55.0000  24.0000 0000000   0.0000 294.0000 14.79785908    15
CTC1_L_00085004-01
1 10012U 26801UK  26075.70030093  .00000000  00000+0  00000-0 0  9992
2 10012  55.0000  36.0000 0000000   0.0000  36.0000 14.79785908    13
CTC1_L_00085004-02
1 10013U 24103ND  26075.70030093  .00000000  00000+0  00000-0 0  9996
2 10013  55.0000  36.0000 0000000   0.0000 126.0000 14.79785908    14
CTC1_L_00085004-03
1 10014U 24480JO  26075.70030093  .00000000  00000+0  00000-0 0  9995
2 10014  55.0000  36.0000 0000000   0.0000 216.0000 14.79785908    15
CTC1_L_00085004-04
1 10015U 25125LY  26075.70030093  .00000000  00000+0  00000-0 0  9993
2 10015  55.0000  36.0000 0000000   0.0000 306.0000 14.79785908    16
CTC1_L_00085005-01
1 10016U 22740UW  26075.70030093  .00000000  00000+0  00000-0 0  9994
2 10016  55.0000  48.0000 0000000   0.0000  48.0000 14.79785908    13
CTC1_L_00085005-02
1 10017U 26178VX  26075.70030093  .00000000  00000+0  00000-0 0  9994
2 10017  55.0000  48.0000 0000000   0.0000 138.0000 14.79785908    14
CTC1_L_00085005-03
1 10018U 22113BI  26075.70030093  .00000000  00000+0  00000-0 0  9990
2 10018  55.0000  48.0000 0000000   0.0000 228.0000 14.79785908    15
CTC1_L_00085005-04
1 10019U 26012YZ  26075.70030093  .00000000  00000+0  00000-0 0  9993
2 10019  55.0000  48.0000 0000000   0.0000 318.0000 14.79785908    16
CTC1_L_00085006-01
1 10020U 22261CK  26075.70030093  .00000000  00000+0  00000-0 0  9997
2 10020  55.0000  60.0000 0000000   0.0000  60.0000 14.79785908    16
CTC1_L_00085006-02
1 10021U 23514CA  26075.70030093  .00000000  00000+0  00000-0 0  9990
2 10021  55.0000  60.0000 0000000   0.0000 150.0000 14.79785908    17
CTC1_L_00085006-03
1 10022U 22391CZ  26075.70030093  .00000000  00000+0  00000-0 0  9993
2 10022  55.0000  60.0000 0000000   0.0000 240.0000 14.79785908    18
CTC1_L_00085006-04
1 10023U 25719ND  26075.70030093  .00000000  00000+0  00000-0 0  9991
2 10023  55.0000  60.0000 0000000   0.0000 330.0000 14.79785908    19
CTC1_L_00085007-01
1 10024U 25654FG  26075.70030093  .00000000  00000+0  00000-0 0  9990
2 10024  55.0000  72.0000 0000000   0.0000  72.0000 14.79785908    16
CTC1_L_00085007-02
1 10025U 26891YP  26075.70030093  .00000000  00000+0  00000-0 0  9995
2 10025  55.0000  72.0000 0000000   0.0000 162.0000 14.79785908    17
CTC1_L_00085007-03
1 10026U 25363EY  26075.70030093  .00000000  00000+0  00000-0 0  9999
2 10026  55.0000  72.0000 0000000   0.0000 252.0000 14.79785908    18
CTC1_L_00085007-04
1 10027U 23855GA  26075.70030093  .00000000  00000+0  00000-0 0  9994
2 10027  55.0000  72.0000 0000000   0.0000 342.0000 14.79785908    19
CTC1_L_00085008-01
1 10028U 24592PU  26075.70030093  .00000000  00000+0  00000-0 0  9994
2 10028  55.0000  84.0000 0000000   0.0000  84.0000 14.79785908    16
CTC1_L_00085008-02
1 10029U 24555QR  26075.70030093  .00000000  00000+0  00000-0 0  9994
2 10029  55.0000  84.0000 0000000   0.0000 174.0000 14.79785908    17
CTC1_L_00085008-03
1 10030U 26100QA  26075.70030093  .00000000  00000+0  00000-0 0  9994
2 10030  55.0000  84.0000 0000000   0.0000 264.0000 14.79785908    19
CTC1_L_00085008-04
1 10031U 25688AK  26075.70030093  .00000000  00000+0  00000-0 0  9995
2 10031  55.0000  84.0000 0000000   0.0000 354.0000 14.79785908    10
CTC1_L_00085009-01
1 10032U 24212AG  26075.70030093  .00000000  00000+0  00000-0 0  9998
2 10032  55.0000  96.0000 0000000   0.0000  96.0000 14.79785908    17
CTC1_L_00085009-02
1 10033U 23510DW  26075.70030093  .00000000  00000+0  00000-0 0  9999
2 10033  55.0000  96.0000 0000000   0.0000 186.0000 14.79785908    18
CTC1_L_00085009-03
1 10034U 25770ZK  26075.70030093  .00000000  00000+0  00000-0 0  9990
2 10034  55.0000  96.0000 0000000   0.0000 276.0000 14.79785908    19
CTC1_L_00085009-04
1 10035U 25863RT  26075.70030093  .00000000  00000+0  00000-0 0  9994
2 10035  55.0000  96.0000 0000000   0.0000   6.0000 14.79785908    11
CTC1_L_00085010-01
1 10036U 26418QL  26075.70030093  .00000000  00000+0  00000-0 0  9992
2 10036  55.0000 108.0000 0000000   0.0000 108.0000 14.79785908    19
CTC1_L_00085010-02
1 10037U 22935HW  26075.70030093  .00000000  00000+0  00000-0 0  9993
2 10037  55.0000 108.0000 0000000   0.0000 198.0000 14.79785908    19
CTC1_L_00085010-03
1 10038U 22764VF  26075.70030093  .00000000  00000+0  00000-0 0  9994
2 10038  55.0000 108.0000 0000000   0.0000 288.0000 14.79785908    10
CTC1_L_00085010-04
1 10039U 24293NL  26075.70030093  .00000000  00000+0  00000-0 0  9994
2 10039  55.0000 108.0000 0000000   0.0000  18.0000 14.79785908    12
CTC1_L_00085011-01
1 10040U 25078XN  26075.70030093  .00000000  00000+0  00000-0 0  9998
2 10040  55.0000 120.0000 0000000   0.0000 120.0000 14.79785908    12
CTC1_L_00085011-02
1 10041U 26574HN  26075.70030093  .00000000  00000+0  00000-0 0  9991
2 10041  55.0000 120.0000 0000000   0.0000 210.0000 14.79785908    13
CTC1_L_00085011-03
1 10042U 23479FV  26075.70030093  .00000000  00000+0  00000-0 0  9993
2 10042  55.0000 120.0000 0000000   0.0000 300.0000 14.79785908    14
CTC1_L_00085011-04
1 10043U 25063BL  26075.70030093  .00000000  00000+0  00000-0 0  9995
2 10043  55.0000 120.0000 0000000   0.0000  30.0000 14.79785908    15
CTC1_L_00085012-01
1 10044U 25639YF  26075.70030093  .00000000  00000+0  00000-0 0  9995
2 10044  55.0000 132.0000 0000000   0.0000 132.0000 14.79785908    12
CTC1_L_00085012-02
1 10045U 25552YY  26075.70030093  .00000000  00000+0  00000-0 0  9990
2 10045  55.0000 132.0000 0000000   0.0000 222.0000 14.79785908    13
CTC1_L_00085012-03
1 10046U 22808DW  26075.70030093  .00000000  00000+0  00000-0 0  9992
2 10046  55.0000 132.0000 0000000   0.0000 312.0000 14.79785908    14
CTC1_L_00085012-04
1 10047U 24756NV  26075.70030093  .00000000  00000+0  00000-0 0  9997
2 10047  55.0000 132.0000 0000000   0.0000  42.0000 14.79785908    15
CTC1_L_00085013-01
1 10048U 24061ZX  26075.70030093  .00000000  00000+0  00000-0 0  9997
2 10048  55.0000 144.0000 0000000   0.0000 144.0000 14.79785908    12
CTC1_L_00085013-02
1 10049U 25457BR  26075.70030093  .00000000  00000+0  00000-0 0  9998
2 10049  55.0000 144.0000 0000000   0.0000 234.0000 14.79785908    13
CTC1_L_00085013-03
1 10050U 23766OH  26075.70030093  .00000000  00000+0  00000-0 0  9991
2 10050  55.0000 144.0000 0000000   0.0000 324.0000 14.79785908    15
CTC1_L_00085013-04
1 10051U 23816IT  26075.70030093  .00000000  00000+0  00000-0 0  9998
2 10051  55.0000 144.0000 0000000   0.0000  54.0000 14.79785908    16
CTC1_L_00085014-01
1 10052U 23957WP  26075.70030093  .00000000  00000+0  00000-0 0  9995
2 10052  55.0000 156.0000 0000000   0.0000 156.0000 14.79785908    13
CTC1_L_00085014-02
1 10053U 23119OT  26075.70030093  .00000000  00000+0  00000-0 0  9996
2 10053  55.0000 156.0000 0000000   0.0000 246.0000 14.79785908    14
CTC1_L_00085014-03
1 10054U 26722ZR  26075.70030093  .00000000  00000+0  00000-0 0  9990
2 10054  55.0000 156.0000 0000000   0.0000 336.0000 14.79785908    15
CTC1_L_00085014-04
1 10055U 23168PC  26075.70030093  .00000000  00000+0  00000-0 0  9992
2 10055  55.0000 156.0000 0000000   0.0000  66.0000 14.79785908    16
CTC1_L_00085015-01
1 10056U 23376WA  26075.70030093  .00000000  00000+0  00000-0 0  9994
2 10056  55.0000 168.0000 0000000   0.0000 168.0000 14.79785908    13
CTC1_L_00085015-02
1 10057U 26049QB  26075.70030093  .00000000  00000+0  00000-0 0  9995
2 10057  55.0000 168.0000 0000000   0.0000 258.0000 14.79785908    14
CTC1_L_00085015-03
1 10058U 24794YP  26075.70030093  .00000000  00000+0  00000-0 0  9991
2 10058  55.0000 168.0000 0000000   0.0000 348.0000 14.79785908    15
CTC1_L_00085015-04
1 10059U 25857M   26075.70030093  .00000000  00000+0  00000-0 0  9993
2 10059  55.0000 168.0000 0000000   0.0000  78.0000 14.79785908    16
CTC1_L_00085016-01
1 10060U 22145JC  26075.70030093  .00000000  00000+0  00000-0 0  9992
2 10060  55.0000 180.0000 0000000   0.0000 180.0000 14.79785908    16
CTC1_L_00085016-02
1 10061U 25563DW  26075.70030093  .00000000  00000+0  00000-0 0  9990
2 10061  55.0000 180.0000 0000000   0.0000 270.0000 14.79785908    17
